[{"OBJECT_NAME":"CHUANGXIN-3 (CX-3)","OBJECT_ID":"2013-037B","EPOCH":"2026-03-09T23:41:48.559776","MEAN_MOTION":14.74394744,"ECCENTRICITY":0.00055411,"INCLINATION":98.084,"RA_OF_ASC_NODE":75.4374,"ARG_OF_PERICENTER":91.0798,"MEAN_ANOMALY":269.1045,"EPHEMERIS_TYPE":0,"CLASSIFICATION_TYPE":"U","NORAD_CAT_ID":39209,"ELEMENT_SET_NO":999,"REV_AT_EPOCH":67773,"BSTAR":0.00024158213,"MEAN_MOTION_DOT":1.551e-5,"MEAN_MOTION_DDOT":0},{"OBJECT_NAME":"CZ-4C DEB","OBJECT_ID":"2013-037G","EPOCH":"2026-03-09T23:40:02.898624","MEAN_MOTION":14.73296528,"ECCENTRICITY":0.00129143,"INCLINATION":98.1034,"RA_OF_ASC_NODE":76.3933,"ARG_OF_PERICENTER":37.349,"MEAN_ANOMALY":322.8613,"EPHEMERIS_TYPE":0,"CLASSIFICATION_TYPE":"U","NORAD_CAT_ID":39214,"ELEMENT_SET_NO":999,"REV_AT_EPOCH":67728,"BSTAR":0.0001953732,"MEAN_MOTION_DOT":1.214e-5,"MEAN_MOTION_DDOT":0}]
